[{"OBJECT_NAME":"STARLINK-30704","OBJECT_ID":"2023-148M","EPOCH":"2026-03-09T11:11:38.916096","MEAN_MOTION":15.30195527,"ECCENTRICITY":0.00012368,"INCLINATION":53.1598,"RA_OF_ASC_NODE":102.4833,"ARG_OF_PERICENTER":79.3789,"MEAN_ANOMALY":280.7351,"EPHEMERIS_TYPE":0,"CLASSIFICATION_TYPE":"U","NORAD_CAT_ID":57946,"ELEMENT_SET_NO":999,"REV_AT_EPOCH":13728,"BSTAR":2.904023e-6,"MEAN_MOTION_DOT":-2.73e-6,"MEAN_MOTION_DDOT":0},{"OBJECT_NAME":"CZ-4C R\/B","OBJECT_ID":"2022-069B","EPOCH":"2026-03-09T22:08:25.149120","MEAN_MOTION":15.31915595,"ECCENTRICITY":0.00471341,"INCLINATION":97.9961,"RA_OF_ASC_NODE":42.6953,"ARG_OF_PERICENTER":87.2467,"MEAN_ANOMALY":273.4166,"EPHEMERIS_TYPE":0,"CLASSIFICATION_TYPE":"U","NORAD_CAT_ID":52913,"ELEMENT_SET_NO":999,"REV_AT_EPOCH":20482,"BSTAR":0.00043675127,"MEAN_MOTION_DOT":0.00013855,"MEAN_MOTION_DDOT":0}]
